[{"OBJECT_NAME":"GAOFEN-9 03","OBJECT_ID":"2020-039A","EPOCH":"2026-03-09T21:55:15.121344","MEAN_MOTION":15.30529116,"ECCENTRICITY":0.0013094,"INCLINATION":97.5219,"RA_OF_ASC_NODE":201.2158,"ARG_OF_PERICENTER":77.4533,"MEAN_ANOMALY":282.8172,"EPHEMERIS_TYPE":0,"CLASSIFICATION_TYPE":"U","NORAD_CAT_ID":45794,"ELEMENT_SET_NO":999,"REV_AT_EPOCH":31856,"BSTAR":0.00039258132,"MEAN_MOTION_DOT":0.00011544,"MEAN_MOTION_DDOT":0},{"OBJECT_NAME":"STARLINK-35810","OBJECT_ID":"2025-268U","EPOCH":"2026-03-09T03:18:54.821664","MEAN_MOTION":15.2757036,"ECCENTRICITY":0.00014395,"INCLINATION":43.0021,"RA_OF_ASC_NODE":350.3294,"ARG_OF_PERICENTER":248.8462,"MEAN_ANOMALY":111.2236,"EPHEMERIS_TYPE":0,"CLASSIFICATION_TYPE":"U","NORAD_CAT_ID":66575,"ELEMENT_SET_NO":999,"REV_AT_EPOCH":1787,"BSTAR":0.0015059189,"MEAN_MOTION_DOT":0.00041398,"MEAN_MOTION_DDOT":0}]
